ONEWEB-0128             
1 47274U 20100S   25055.48134602 -.00000274  00000+0 -79629-3 0  9992
2 47274  87.8815  85.7903 0002113  94.3472 265.7898 13.12439157202084
ONEWEB-0129             
1 47275U 20100T   25055.15533543  .00000369  00000+0  99024-3 0  9998
2 47275  87.8810  85.8069 0002325  61.5516 298.5846 13.12442031201973
ONEWEB-0130             
1 47276U 20100U   25054.87795829 -.00002281  00000+0 -63789-2 0  9999
2 47276  87.8811  85.8659 0001868  94.3007 265.8335 13.12424904201902
ONEWEB-0131             
1 47277U 20100V   25055.10342021 -.00000304  00000+0 -88099-3 0  9995
2 47277  87.8812  85.8430 0002002  96.0235 264.1122 13.12441175201976
ONEWEB-0132             
1 47278U 20100W   25055.36133646  .00000224  00000+0  58591-3 0  9998
2 47278  87.8811  85.7928 0001891 101.2049 258.9292 13.12443527201909
ONEWEB-0133             
1 47279U 20100X   25055.14884759  .00000428  00000+0  11532-2 0  9992
2 47279  87.8805  85.8199 0001992  95.4161 264.7195 13.12442155202033
ONEWEB-0134             
1 47280U 20100Y   25055.49920711 -.00000275  00000+0 -79930-3 0  9990
2 47280  87.8805  85.7346 0002151  90.3396 269.7979 13.12442316202056
ONEWEB-0135             
1 47281U 20100Z   25054.78387620  .00000025  00000+0  32746-4 0  9994
2 47281  87.8809  85.9084 0002382  93.7858 266.3543 13.12441656201985
